EUTELSAT 21B            
1 38992U 12062B   25273.71847351  .00000132  00000+0  00000+0 0  9991
2 38992   0.0697   3.7164 0002867 192.0978  94.1301  1.00271679 47221
EUTELSAT 70B            
1 39020U 12069A   25273.82197449 -.00000042  00000+0  00000+0 0  9990
2 39020   0.0669 350.6272 0004223 203.4781 182.1268  1.00273137 46909
EUTELSAT 117 WEST A     
1 39122U 13012A   25273.54825939 -.00000011  00000+0  00000+0 0  9999
2 39122   0.0368  46.8443 0002989 148.1146 255.1821  1.00273182 45825
EUTELSAT 7B             
1 39163U 13022A   25273.71552683  .00000050  00000+0  00000+0 0  9999
2 39163   0.0674   5.8296 0000799 340.6483 287.8234  1.00272234 45356
EXPRESS-AT1             
1 39612U 14010A   25273.86799263  .00000080  00000+0  00000+0 0  9992
2 39612   0.0188 215.8547 0000829 238.7676 283.7314  1.00270959 42210
EXPRESS-AT2             
1 39613U 14010B   25273.88463271 -.00000279  00000+0  00000+0 0  9993
2 39613   0.0160 241.0118 0000800 199.9810  27.2134  1.00271886 41909
EUTELSAT 3B             
1 39773U 14030A   25273.35793855  .00000023  00000+0  00000+0 0  9994
2 39773   0.0661 348.7792 0004615 194.9794 317.5713  1.00273238 41461
EUTELSAT 115 WEST B     
1 40425U 15010B   25273.54869272 -.00000023  00000+0  00000+0 0  9998
2 40425   0.0195  34.8672 0000373 243.3389 173.9681  1.00270074 38790
